NORAD_CAT_ID,OBJECT_NAME,OBJECT_TYPE,EPOCH,MEAN_MOTION,ECCENTRICITY,INCLINATION,RA_OF_ASC_NODE,ARG_OF_PERICENTER,MEAN_ANOMALY,BSTAR,MEAN_MOTION_DOT,MEAN_MOTION_DDOT,TLE_LINE0,TLE_LINE1,TLE_LINE2,SEMIMAJOR_AXIS,PERIOD,APOGEE,PERIGEE,DECAYED
55945.0,STARLINK-5925,PAYLOAD,2023-06-22 04:00:00,15.66105587,0.0003526,69.9998,270.0524,265.5811,309.7827,-0.0094058,-0.0087226,0.0,0 STARLINK-5925,1 55945U 23037AH  23173.16667824 -.00872260  00000-0 -94058-2 0  9994,2 55945  69.9998 270.0524 0003526 265.5811 309.7827 15.66105587 15651,6748.198,91.948,372.442,367.684,0.0
55945.0,STARLINK-5925,PAYLOAD,2023-06-22 14:00:01,15.65269965,0.0003664,70.0,268.8884,275.8712,127.3463,-0.0095353,-0.00856735,0.0,0 STARLINK-5925,1 55945U 23037AH  23173.58334491 -.00856735  00000-0 -95353-2 0  9999,2 55945  70.0000 268.8884 0003664 275.8712 127.3463 15.65269965 15727,6750.599,91.997,374.938,369.991,0.0
55945.0,STARLINK-5925,PAYLOAD,2023-06-23 06:00:00,15.64020586,0.0003364,70.0,267.0291,268.6254,288.571,-0.010974,-0.00944258,0.0,0 STARLINK-5925,1 55945U 23037AH  23174.25001157 -.00944258  00000-0 -10974-1 0  9997,2 55945  70.0000 267.0291 0003364 268.6254 288.5710 15.64020586 15827,6754.194,92.07,378.331,373.787,0.0
55945.0,STARLINK-5925,PAYLOAD,2023-06-24 14:00:01,15.61359591,0.0003233,69.9995,263.3204,276.985,218.8489,-0.011113,-0.00868342,0.0,0 STARLINK-5925,1 55945U 23037AH  23175.58334491 -.00868342  00000-0 -11113-1 0  9999,2 55945  69.9995 263.3204 0003233 276.9850 218.8489 15.61359591 16030,6761.866,92.227,385.917,381.545,0.0
55945.0,STARLINK-5925,PAYLOAD,2023-06-25 06:00:00,15.60112662,0.0003337,69.9997,261.4718,268.6501,11.7777,-0.012933,-0.00954404,0.0,0 STARLINK-5925,1 55945U 23037AH  23176.25001157 -.00954404  00000-0 -12933-1 0  9990,2 55945  69.9997 261.4718 0003337 268.6501  11.7777 15.60112662 16144,6765.468,92.301,389.591,385.076,0.0
55945.0,STARLINK-5925,PAYLOAD,2023-06-25 22:00:01,15.58764549,0.0003327,69.9991,259.6263,272.3988,149.599,-0.012799,-0.00902123,0.0,0 STARLINK-5925,1 55945U 23037AH  23176.91668981 -.00902123  00000-0 -12799-1 0  9998,2 55945  69.9991 259.6263 0003327 272.3988 149.5990 15.58764549 16244,6769.369,92.381,393.486,388.981,0.0
55945.0,STARLINK-5925,PAYLOAD,2023-06-26 22:00:00,15.56810161,0.0003261,69.9994,256.865,269.2498,359.0443,-0.01386,-0.00907045,0.0,0 STARLINK-5925,1 55945U 23037AH  23177.91667824 -.00907045  00000-0 -13860-1 0  9992,2 55945  69.9994 256.8650 0003261 269.2498 359.0443 15.56810161 16403,6775.033,92.497,399.107,394.688,0.0
55945.0,STARLINK-5925,PAYLOAD,2023-06-27 22:00:00,15.54844614,0.0003414,69.9994,254.1119,272.9842,194.6348,-0.014635,-0.0089189,0.0,0 STARLINK-5925,1 55945U 23037AH  23178.91667824 -.00891890  00000-0 -14635-1 0  9994,2 55945  69.9994 254.1119 0003414 272.9842 194.6348 15.54844614 16559,6780.741,92.614,404.921,400.291,0.0
55945.0,STARLINK-5925,PAYLOAD,2023-06-28 14:00:01,15.53527392,0.0003585,69.9999,252.281,274.1105,322.4795,-0.014799,-0.00862194,0.0,0 STARLINK-5925,1 55945U 23037AH  23179.58334491 -.00862194  00000-0 -14799-1 0  9995,2 55945  69.9999 252.2810 0003585 274.1105 322.4795 15.53527392 16665,6784.574,92.692,408.871,404.006,0.0
55945.0,STARLINK-5925,PAYLOAD,2023-06-29 22:00:00,15.51204426,0.0003499,69.9997,248.6299,271.9205,213.28,0.00012485,7.17e-05,0.0,0 STARLINK-5925,1 55945U 23037AH  23180.91667824  .00007170  00000-0  12485-3 0  9998,2 55945  69.9997 248.6299 0003499 271.9205 213.2800 15.51204426 16867,6791.345,92.831,415.587,410.834,0.0
55945.0,STARLINK-5925,PAYLOAD,2023-06-30 22:00:00,15.51226609,0.0003465,69.9996,245.896,271.0282,36.9207,-0.0003041,-0.00017989,0.0,0 STARLINK-5925,1 55945U 23037AH  23181.91667824 -.00017989  00000-0 -30410-3 0  9998,2 55945  69.9996 245.8960 0003465 271.0282  36.9207 15.51226609 17026,6791.281,92.83,415.499,410.792,0.0
55945.0,STARLINK-5925,PAYLOAD,2023-07-01 14:00:01,15.5120564,0.0003592,69.9998,244.0733,274.2735,155.5081,0.00069358,0.0004076,0.0,0 STARLINK-5925,1 55945U 23037AH  23182.58334491  .00040760  00000-0  69358-3 0  9997,2 55945  69.9998 244.0733 0003592 274.2735 155.5081 15.51205640 17127,6791.342,92.831,415.646,410.767,0.0
55945.0,STARLINK-5925,PAYLOAD,2023-07-02 04:00:00,15.51227718,0.0003589,69.9997,242.4785,266.7596,179.6065,0.0002145,0.00012456,0.0,0 STARLINK-5925,1 55945U 23037AH  23183.16667824  .00012456  00000-0  21450-3 0  9993,2 55945  69.9997 242.4785 0003589 266.7596 179.6065 15.51227718 17211,6791.277,92.83,415.58,410.705,0.0
55945.0,STARLINK-5925,PAYLOAD,2023-07-03 02:50:36,15.51233994,0.0003425,69.997,239.8765,271.4752,88.6042,1.369e-06,-8.5e-07,0.0,0 STARLINK-5925,1 55945U 23037AH  23184.11848147 -.00000085  00000-0  13690-5 0  9993,2 55945  69.9970 239.8765 0003425 271.4752  88.6042 15.51233994 17369,6791.259,92.829,415.45,410.798,0.0
55945.0,STARLINK-5925,PAYLOAD,2023-07-03 12:07:46,15.51222154,0.0003377,69.9974,238.818,268.8013,91.2786,6.3477e-07,-1.28e-06,0.0,0 STARLINK-5925,1 55945U 23037AH  23184.50539555 -.00000128  00000-0  63477-6 0  9993,2 55945  69.9974 238.8180 0003377 268.8013  91.2786 15.51222154 17427,6791.294,92.83,415.452,410.865,0.0
55945.0,STARLINK-5925,PAYLOAD,2023-07-04 11:20:47,15.51106711,0.0004146,69.9968,236.1746,275.2355,84.8358,-0.00026333,-0.0001554,0.0,0 STARLINK-5925,1 55945U 23037AH  23185.47276874 -.00015540  00000-0 -26333-3 0  9994,2 55945  69.9968 236.1746 0004146 275.2355  84.8358 15.51106711 17574,6791.631,92.837,416.311,410.68,0.0
55945.0,STARLINK-5925,PAYLOAD,2023-07-04 12:53:48,15.5097469,0.0003729,69.9967,235.9987,280.6203,79.4562,-0.0005604,-0.00032659,0.0,0 STARLINK-5925,1 55945U 23037AH  23185.53737172 -.00032659  00000-0 -56040-3 0  9992,2 55945  69.9967 235.9987 0003729 280.6203  79.4562 15.50974690 17581,6792.016,92.845,416.414,411.348,0.0
55945.0,STARLINK-5925,PAYLOAD,2023-07-04 20:38:27,15.50760614,0.0002526,69.9979,235.1186,283.557,76.5335,-0.00098447,-0.00056635,0.0,0 STARLINK-5925,1 55945U 23037AH  23185.86004497 -.00056635  00000-0 -98447-3 0  9992,2 55945  69.9979 235.1186 0002526 283.5570  76.5335 15.50760614 17631,6792.641,92.858,416.222,412.79,0.0
55945.0,STARLINK-5925,PAYLOAD,2023-07-05 14:00:01,15.48672751,0.0003313,69.9993,233.1445,275.746,159.1069,-0.0181,-0.00884071,0.0,0 STARLINK-5925,1 55945U 23037AH  23186.58335648 -.00884071  00000-0 -18100-1 0  9996,2 55945  69.9993 233.1445 0003313 275.7460 159.1069 15.48672751 17744,6798.745,92.983,422.862,418.357,0.0
55945.0,STARLINK-5925,PAYLOAD,2023-07-06 06:00:00,15.47394644,0.0003354,69.9996,231.331,268.6725,280.2673,-0.020204,-0.00951472,0.0,0 STARLINK-5925,1 55945U 23037AH  23187.25001157 -.00951472  00000-0 -20204-1 0  9994,2 55945  69.9996 231.3310 0003354 268.6725 280.2673 15.47394644 17847,6802.488,93.06,426.635,422.071,0.0
55945.0,STARLINK-5925,PAYLOAD,2023-07-06 22:00:01,15.46033585,0.0003537,69.9994,229.5205,267.7505,32.2925,-0.018763,-0.00840058,0.0,0 STARLINK-5925,1 55945U 23037AH  23187.91668981 -.00840058  00000-0 -18763-1 0  9995,2 55945  69.9994 229.5205 0003537 267.7505  32.2925 15.46033585 17956,6806.48,93.142,430.752,425.937,0.0
55945.0,STARLINK-5925,PAYLOAD,2023-07-07 14:00:01,15.44756955,0.0003671,69.9995,227.7136,274.9842,132.8804,-0.020712,-0.00895298,0.0,0 STARLINK-5925,1 55945U 23037AH  23188.58334491 -.00895298  00000-0 -20712-1 0  9998,2 55945  69.9995 227.7136 0003671 274.9842 132.8804 15.44756955 18059,6810.229,93.219,434.594,429.594,0.0
55945.0,STARLINK-5925,PAYLOAD,2023-07-08 06:00:00,15.43478457,0.0003483,69.9999,225.9101,271.5287,241.0998,-0.023098,-0.00950928,0.0,0 STARLINK-5925,1 55945U 23037AH  23189.25001157 -.00950928  00000-0 -23098-1 0  9995,2 55945  69.9999 225.9101 0003483 271.5287 241.0998 15.43478457 18157,6813.989,93.296,438.228,433.481,0.0
55945.0,STARLINK-5925,PAYLOAD,2023-07-08 22:00:00,15.42121246,0.0003371,69.9999,224.1105,266.8414,347.4339,-0.02135,-0.00847757,0.0,0 STARLINK-5925,1 55945U 23037AH  23189.91667824 -.00847757  00000-0 -21350-1 0  9991,2 55945  69.9999 224.1105 0003371 266.8414 347.4339 15.42121246 18269,6817.987,93.378,442.15,437.554,0.0
55945.0,STARLINK-5925,PAYLOAD,2023-07-09 06:00:00,15.41521835,0.0003498,70.0,223.212,270.053,33.8584,-0.024706,-0.00952193,0.0,0 STARLINK-5925,1 55945U 23037AH  23190.25001157 -.00952193  00000-0 -24706-1 0  9990,2 55945  70.0000 223.2120 0003498 270.0530  33.8584 15.41521835 18319,6819.754,93.414,444.005,439.234,0.0
55945.0,STARLINK-5925,PAYLOAD,2023-07-09 22:00:00,15.40161449,0.0003427,70.0001,221.4177,268.456,132.41,-0.02262,-0.00841882,0.0,0 STARLINK-5925,1 55945U 23037AH  23190.91667824 -.00841882  00000-0 -22620-1 0  9997,2 55945  70.0001 221.4177 0003427 268.4560 132.4100 15.40161449 18419,6823.769,93.497,447.973,443.296,0.0
55945.0,STARLINK-5925,PAYLOAD,2023-07-10 06:00:00,15.39558341,0.0003386,70.0003,220.5221,269.837,178.32,-0.026141,-0.00944543,0.0,0 STARLINK-5925,1 55945U 23037AH  23191.25001157 -.00944543  00000-0 -26141-1 0  9996,2 55945  70.0003 220.5221 0003386 269.8370 178.3200 15.39558341 18463,6825.551,93.533,449.728,445.105,0.0
55945.0,STARLINK-5925,PAYLOAD,2023-07-10 22:00:00,15.38203372,0.0003244,70.0001,218.7329,266.5935,273.8224,-0.024022,-0.00838529,0.0,0 STARLINK-5925,1 55945U 23037AH  23191.91667824 -.00838529  00000-0 -24022-1 0  9990,2 55945  70.0001 218.7329 0003244 266.5935 273.8224 15.38203372 18561,6829.559,93.616,453.64,449.209,0.0
55945.0,STARLINK-5925,PAYLOAD,2023-07-11 06:00:00,15.37590646,0.0003243,70.0005,217.8398,267.7874,317.5754,-0.02727,-0.00925432,0.0,0 STARLINK-5925,1 55945U 23037AH  23192.25001157 -.00925432  00000-0 -27270-1 0  9997,2 55945  70.0005 217.8398 0003243 267.7874 317.5754 15.37590646 18628,6831.373,93.653,455.454,451.023,0.0
55945.0,STARLINK-5925,PAYLOAD,2023-07-12 14:00:01,15.35001439,0.0003291,69.9999,214.2757,275.5577,121.8397,-0.030248,-0.0094263,0.0,0 STARLINK-5925,1 55945U 23037AH  23193.58335648 -.00942630  00000-0 -30248-1 0  9997,2 55945  69.9999 214.2757 0003291 275.5577 121.8397 15.35001439 18823,6839.053,93.811,463.169,458.667,0.0
